OBJECT_NAME,OBJECT_ID,EPOCH,MEAN_MOTION,ECCENTRICITY,INCLINATION,RA_OF_ASC_NODE,ARG_OF_PERICENTER,MEAN_ANOMALY,EPHEMERIS_TYPE,CLASSIFICATION_TYPE,NORAD_CAT_ID,ELEMENT_SET_NO,REV_AT_EPOCH,BSTAR,MEAN_MOTION_DOT,MEAN_MOTION_DDOT
ALOS-2,2014-029A,2026-06-19T13:46:29.362944,14.79476685,.00016928,97.9224,267.7035,91.9201,268.2204,0,U,39766,999,65193,.21271453E-3,.1538E-4,0
KAZEOSAT 2,2014-033A,2026-06-19T14:06:12.535776,14.85474406,.00076063,97.5399,10.0719,320.9551,39.1115,0,U,40010,999,64931,.11598368E-3,.951E-5,0
HODOYOSHI-4,2014-033B,2026-06-19T14:08:26.067840,14.88130526,.00223671,97.5448,355.2947,299.8180,60.0814,0,U,40011,999,64916,.87656973E-4,.758E-5,0
DEIMOS-2,2014-033D,2026-06-19T14:16:24.672000,14.93728878,.00013455,97.5817,44.9981,56.2471,303.8877,0,U,40013,999,63808,.10090134E-3,.1014E-4,0
HODOYOSHI-3,2014-033F,2026-06-19T08:10:32.225664,14.85392088,.00324885,97.6420,333.2944,350.1791,9.8786,0,U,40015,999,64794,.93398962E-4,.758E-5,0
SPOT 7,2014-034A,2026-06-19T15:31:56.428032,14.60961112,.00012422,98.0623,233.0760,93.6425,266.4918,0,U,40053,999,63749,.11877382E-3,.537E-5,0
SKYSAT-B,2014-037D,2026-06-19T08:15:36.707904,14.88032683,.00041588,98.3840,129.4321,272.5492,87.5247,0,U,40072,999,64628,.11650803E-3,.1009E-4,0
WORLDVIEW-3 (WV-3),2014-048A,2026-06-19T12:36:58.174848,14.85025126,.00007927,97.8566,245.3263,22.7117,337.4132,0,U,40115,999,64225,.79287139E-4,.623E-5,0
GAOFEN-2,2014-049A,2026-06-19T14:36:38.903040,14.80902130,.00062835,98.0104,234.8140,217.1838,142.8940,0,U,40118,999,63959,.13417352E-3,.984E-5,0
YAOGAN-21,2014-053A,2026-06-19T14:07:00.478272,15.26403659,.00099021,97.1464,210.7215,87.1311,273.1061,0,U,40143,999,65532,.28073177E-3,.7248E-4,0
YAOGAN-22,2014-063A,2026-06-19T07:33:46.197792,13.15530971,.00063932,100.7727,321.6236,180.5846,179.5259,0,U,40275,999,56009,.18632301E-4,-.4E-6,0
ASNARO,2014-070A,2026-06-19T14:18:09.418176,15.19468195,.00059274,97.3449,246.6454,157.1520,202.9980,0,U,40298,999,64437,.425314E-3,.8962E-4,0
YAOGAN-24,2014-072A,2026-06-19T15:47:12.724224,14.76224290,.00125524,98.1499,308.0167,254.7186,105.2636,0,U,40310,999,62408,.41488956E-4,.234E-5,0
CBERS 4,2014-079A,2026-06-19T14:47:18.207744,14.35510706,.00017645,98.3525,227.3719,61.9623,298.1741,0,U,40336,999,60430,.13728427E-3,.353E-5,0
YAOGAN-26,2014-088A,2026-06-19T14:10:56.942112,15.47427304,.00057643,97.0644,170.7433,62.6989,297.4848,0,U,40362,999,63807,.28901461E-3,.14737E-3,0
SMAP,2015-003A,2026-06-19T12:59:40.371936,14.63368307,.00013523,98.1276,177.6026,96.9426,263.1930,0,U,40376,999,60796,.69769628E-4,.314E-5,0
KOMPSAT-3A,2015-014A,2026-06-19T14:59:01.195296,15.54087994,.00567175,97.6890,162.1650,165.6681,194.6197,0,U,40536,999,62219,.29183809E-3,.2022E-3,0
SENTINEL-2A,2015-028A,2026-06-19T14:12:56.086848,14.30817248,.00011234,98.5682,245.4101,91.5212,268.6099,0,U,40697,999,57407,.18088281E-3,.431E-5,0
GAOFEN-8,2015-030A,2026-06-19T14:41:22.345152,15.46028994,.00090119,97.6903,4.1275,177.6866,182.4426,0,U,40701,999,61182,.39841816E-3,.19409E-3,0
CARBONITE 1 (CBNT-1),2015-032D,2026-06-19T14:39:11.414592,14.83593085,.00130473,97.6508,348.5750,289.4968,70.4836,0,U,40718,999,58970,.13761193E-3,.1085E-4,0
YAOGAN-27,2015-040A,2026-06-19T14:43:06.360384,13.16071137,.00077161,100.1156,156.8910,204.4217,155.6532,0,U,40878,999,51798,.52658392E-3,.158E-5,0
GAOFEN-9 01,2015-047A,2026-06-19T15:02:29.784768,14.82887697,.00285373,97.6279,206.2108,130.1525,230.2195,0,U,40894,999,58055,.96978402E-4,.74E-5,0
YAOGAN-28,2015-064A,2026-06-19T14:46:33.040416,15.27445477,.00108665,97.3083,308.8276,174.7884,185.3471,0,U,41026,999,59105,.19561881E-3,.5189E-4,0
YAOGAN-29,2015-069A,2026-06-19T14:33:35.506080,14.83086053,.0002516,98.0020,199.2438,49.9674,310.1760,0,U,41038,999,57098,-.2495184E-5,-.74E-6,0
KENT RIDGE 1,2015-077B,2026-06-19T14:04:23.532672,15.23144229,.00082501,14.9791,248.1477,272.4275,87.5102,0,U,41167,999,58146,.10530968E-3,.3326E-4,0
GAOFEN-4,2015-083A,2026-06-19T16:02:53.413728,1.00273520,.00042088,0.3650,83.7689,119.6556,50.8733,0,U,41194,999,3855,0,-.341E-5,0
JASON-3,2016-002A,2026-06-19T13:34:39.556704,12.87628095,.00084901,66.0405,120.8343,272.7095,87.2952,0,U,41240,999,48755,.61661264E-4,-.47E-6,0
SENTINEL-3A,2016-011A,2026-06-19T14:25:23.831328,14.26733295,.00014186,98.6249,237.9501,99.4394,260.6947,0,U,41335,999,53840,.29912001E-4,.29E-6,0
ZIYUAN 3-02 (ZY 3-02),2016-033A,2026-06-19T14:57:39.732192,15.21198719,.00123606,97.3833,246.3520,282.0726,77.9124,0,U,41556,999,55835,.19535329E-3,.4296E-4,0
CARTOSAT-2C,2016-040A,2026-06-19T15:06:11.719584,15.19211062,.00102169,97.4480,230.5745,123.5363,236.6849,0,U,41599,999,55408,.24359179E-3,.5067E-4,0
