ALOS-2                  
1 39766U 14029A   26170.57395096  .00001538  00000+0  21271-3 0  9999
2 39766  97.9224 267.7035 0001692  91.9201 268.2204 14.79476685651931
KAZEOSAT 2              
1 40010U 14033A   26170.58764509  .00000951  00000+0  11598-3 0  9997
2 40010  97.5399  10.0719 0007606 320.9551  39.1115 14.85474406649317
HODOYOSHI-4             
1 40011U 14033B   26170.58919060  .00000758  00000+0  87657-4 0  9997
2 40011  97.5448 355.2947 0022367 299.8180  60.0814 14.88130526649160
DEIMOS-2                
1 40013U 14033D   26170.59473000  .00001014  00000+0  10090-3 0  9991
2 40013  97.5817  44.9981 0001345  56.2471 303.8877 14.93728878638088
HODOYOSHI-3             
1 40015U 14033F   26170.34065076  .00000758  00000+0  93399-4 0  9994
2 40015  97.6420 333.2944 0032488 350.1791   9.8786 14.85392088647945
SPOT 7                  
1 40053U 14034A   26170.64718088  .00000537  00000+0  11877-3 0  9993
2 40053  98.0623 233.0760 0001242  93.6425 266.4918 14.60961112637497
SKYSAT-B                
1 40072U 14037D   26170.34417486  .00001009  00000+0  11651-3 0  9997
2 40072  98.3840 129.4321 0004158 272.5492  87.5247 14.88032683646280
WORLDVIEW-3 (WV-3)      
1 40115U 14048A   26170.52567332  .00000623  00000+0  79287-4 0  9994
2 40115  97.8566 245.3263 0000792  22.7117 337.4132 14.85025126642253
GAOFEN-2                
1 40118U 14049A   26170.60878360  .00000984  00000+0  13417-3 0  9995
2 40118  98.0104 234.8140 0006283 217.1838 142.8940 14.80902130639597
YAOGAN-21               
1 40143U 14053A   26170.58819998  .00007248  00000+0  28073-3 0  9991
2 40143  97.1464 210.7215 0009902  87.1311 273.1061 15.26403659655326
YAOGAN-22               
1 40275U 14063A   26170.31511803 -.00000040  00000+0  18632-4 0  9998
2 40275 100.7727 321.6236 0006393 180.5846 179.5259 13.15530971560093
ASNARO                  
1 40298U 14070A   26170.59594234  .00008962  00000+0  42531-3 0  9994
2 40298  97.3449 246.6454 0005927 157.1520 202.9980 15.19468195644379
YAOGAN-24               
1 40310U 14072A   26170.65778616  .00000234  00000+0  41489-4 0  9992
2 40310  98.1499 308.0167 0012552 254.7186 105.2636 14.76224290624083
CBERS 4                 
1 40336U 14079A   26170.61618296  .00000353  00000+0  13728-3 0  9996
2 40336  98.3525 227.3719 0001764  61.9623 298.1741 14.35510706604303
YAOGAN-26               
1 40362U 14088A   26170.59093683  .00014737  00000+0  28901-3 0  9999
2 40362  97.0644 170.7433 0005764  62.6989 297.4848 15.47427304638077
SMAP                    
1 40376U 15003A   26170.54143949  .00000314  00000+0  69770-4 0  9994
2 40376  98.1276 177.6026 0001352  96.9426 263.1930 14.63368307607964
KOMPSAT-3A              
1 40536U 15014A   26170.62431939  .00020220  00000+0  29184-3 0  9994
2 40536  97.6890 162.1650 0056717 165.6681 194.6197 15.54087994622198
SENTINEL-2A             
1 40697U 15028A   26170.59231582  .00000431  00000+0  18088-3 0  9998
2 40697  98.5682 245.4101 0001123  91.5212 268.6099 14.30817248574071
GAOFEN-8                
1 40701U 15030A   26170.61206418  .00019409  00000+0  39842-3 0  9996
2 40701  97.6903   4.1275 0009011 177.6866 182.4426 15.46028994611822
CARBONITE 1 (CBNT-1)    
1 40718U 15032D   26170.61054878  .00001085  00000+0  13761-3 0  9990
2 40718  97.6508 348.5750 0013047 289.4968  70.4836 14.83593085589703
YAOGAN-27               
1 40878U 15040A   26170.61326806  .00000158  00000+0  52658-3 0  9997
2 40878 100.1156 156.8910 0007716 204.4217 155.6532 13.16071137517981
GAOFEN-9 01             
1 40894U 15047A   26170.62673362  .00000740  00000+0  96978-4 0  9996
2 40894  97.6279 206.2108 0028537 130.1525 230.2195 14.82887697580553
YAOGAN-28               
1 41026U 15064A   26170.61566019  .00005189  00000+0  19562-3 0  9997
2 41026  97.3083 308.8276 0010866 174.7884 185.3471 15.27445477591054
YAOGAN-29               
1 41038U 15069A   26170.60666095 -.00000074  00000+0 -24952-5 0  9990
2 41038  98.0020 199.2438 0002516  49.9674 310.1760 14.83086053570981
KENT RIDGE 1            
1 41167U 15077B   26170.58638348  .00003326  00000+0  10531-3 0  9996
2 41167  14.9791 248.1477 0008250 272.4275  87.5102 15.23144229581469
GAOFEN-4                
1 41194U 15083A   26170.66867377 -.00000341  00000+0  00000+0 0  9999
2 41194   0.3650  83.7689 0004208 119.6556  50.8733  1.00273520 38550
JASON-3                 
1 41240U 16002A   26170.56573561 -.00000047  00000+0  61661-4 0  9999
2 41240  66.0405 120.8343 0008490 272.7095  87.2952 12.87628095487558
SENTINEL-3A             
1 41335U 16011A   26170.60097027  .00000029  00000+0  29912-4 0  9999
2 41335  98.6249 237.9501 0001418  99.4394 260.6947 14.26733295538401
ZIYUAN 3-02 (ZY 3-02)   
1 41556U 16033A   26170.62337653  .00004296  00000+0  19535-3 0  9991
2 41556  97.3833 246.3520 0012360 282.0726  77.9124 15.21198719558357
CARTOSAT-2C             
1 41599U 16040A   26170.62930231  .00005067  00000+0  24359-3 0  9994
2 41599  97.4480 230.5745 0010216 123.5363 236.6849 15.19211062554089
